store_name,address,Latitude,Longitude
建中黑砂糖刨冰,臺北市中正區泉州街35號,25.0293296,121.5143573
微笑老蕭拉麵 (要等拉麵),臺北市中正區新生南路一段140巷5號,25.0361956,121.5322784
韓天閣,臺北市中正區羅斯福路四段78巷1弄15號1樓,25.0142683,121.5340432
五草車中華食館 南昌店,臺北市中正區南昌路二段188號,25.0242787,121.5238731
OnlyToast偷吃吐司專賣店,臺北市中正區中華路二段303巷1號,25.029361,121.5048981
福井麵疙瘩,臺北市中正區寧波西街87之1號,25.0300076,121.5158442
JBA 職人專研 冷凍舒肥專賣,臺北市中正區羅斯福路四段50之1號1樓,25.0149029,121.53364
曉迪筒仔米糕,臺北市中正區中華路二段307巷,25.0292114,121.5059019
泗元碳烤,臺北市中正區中華路二段311巷21號前,25.0288868,121.5063997
古北饕Goodbeitao_旗艦店,臺北市中正區杭州南路一段9號,25.0434601,121.5268378
Burger Yellow,臺北市中正區南陽街38巷2號,25.0441217,121.5157802
南機場Q麻吉古早味麻糬,臺北市中正區中華路二段307巷2號騎樓,25.0287037,121.5054415
肉多多火鍋 台北重慶南店,臺北市中正區重慶南路一段58號3樓,25.0439217,121.5130574
漢坊餅藝 微風台北車站店,臺北市中正區北平西路3號,25.0473199,121.5160463
TINO’S PIZZA 堤諾比薩 台北濟南店,臺北市中正區濟南路二段69號,25.0404194,121.5323444
樂樂韓食,臺北市中正區羅斯福路四段92號,25.0135188,121.534971
陳記京滬酒釀餅,臺北市中正區重慶南路一段48號,25.044468,121.513113
阿豬媽아줌마韓式烤肉吃到飽 北車店,臺北市中正區北平西路3號微風臺北車站2樓西側2樓,25.0473799,121.5168273
屯京拉麵,臺北市中正區忠孝西路一段,25.0467151,121.5156511
台北喜來登大飯店,臺北市中正區忠孝東路一段12號,25.0445802,121.5224401
艋舺米粉嫂,臺北市中正區汀州路一段159號,25.0274114,121.510456
壹之鄉排骨Yi-zhi-siang,臺北市中正區羅斯福路四段92號水源市場1樓26號,25.01371,121.534983
南機場夜市,臺北市中正區中華路二段307巷,25.0292114,121.5059019
水源食坊,臺北市中正區羅斯福路四段92號,25.0135188,121.534971
黃家香腸,臺北市中正區泉州街32之3號,25.0259953,121.5135301
海享吃精緻鍋物,臺北市中正區中華路二段307巷8號,25.0288151,121.5055885
ponopono,臺北市中正區和平西路二段85之1號,25.0320454,121.5072088
耕莘魷魚羹,臺北市中正區汀州路三段75號,25.0178194,121.5285563
泰正點,臺北市中正區汀州路三段166號,25.0133273,121.5345372
吳記南京板鴨-原李嘉興板鴨主廚,臺北市中正區羅斯福路二段44號,25.0279866,121.5214669
郁坊小館,臺北市中正區延平南路163巷2號,25.0350605,121.5077466
金峰魯肉飯,臺北市中正區羅斯福路一段10號,25.0319266,121.5183382
南機場夜市 橘太郎爆漿 雞蛋糕,臺北市中正區中華路二段313巷20號,25.0283676,121.506533
陳男製菓工作室,臺北市中正區南昌路一段74巷9號1樓,25.030942,121.5168466
力量拉麵（公館店）,臺北市中正區汀州路三段160巷4之1號,25.0134916,121.5341902
藍象廷 台北站前店,台北市中正區忠孝西路一段66號號B1,25.0463554,121.515253
青島豆漿店,臺北市中正區杭州南路一段139之3號,25.036221,121.5247783
中原福州乾麵,臺北市中正區延平南路164號,25.0374627,121.5080756
東門彈子房 ICE,臺北市中正區信義路二段87之4號,25.0344712,121.5268393
大三元豆漿店,臺北市中正區寧波西街233號,25.0251988,121.510168
雹仔豆花 鹽滷豆花,臺北市中正區臨沂街27巷9之4號,25.041292,121.531416
菠蘿麵包 ぼろパン BOLO PAN,臺北市中正區公園路22之3號,25.0451081,121.51704
CAFE de GEAR,台北市中正區寧波東街3-3號,25.0322032,121.5197114
艋舺原汁排骨湯,臺北市中正區臨沂街56之1號,25.0352625,121.5279125
東門赤肉羹,臺北市中正區臨沂街56號,25.0352625,121.5279125
巧之味手工水餃,臺北市中正區濟南路二段6號,25.0416133,121.5265663
阿薄郎薄皮餃子台式小酒館-台北二郎公館店 Uncle A-Bo-Lang Taiwan Bistro,臺北市中正區汀州路三段96號,25.0145154,121.532854
Bar M,台北市中正區羅斯福路二段20號,25.0285738,121.5210413
抹More,臺北市中正區寧波西街221號一樓,25.0256669,121.510357
早澤,臺北市中正區齊東街68號,25.0418525,121.5279243
以馬內利鮮魚湯,臺北市中正區杭州南路一段3號,25.0435754,121.5269794
麵屋雞金,臺北市中正區新生南路一段6號1樓,25.0440359,121.5327103
小魏川菜餐廳,臺北市中正區公園路13號3樓,25.0454867,121.5174126
農人餐桌 親子餐廳,台北市重慶南路二段51號,25.0311865,121.5149412
台大胖妞冰店,臺北市中正區林森南路。徐州路18巷口,25.0399972,121.5219517
福丸早餐,臺北市中正區杭州南路一段131巷35之1號1樓,25.0361045,121.5273059
YumYum 好吃好吃2號店,臺北市中正區羅斯福路三段316巷16號2樓,25.0154544,121.5323621
藍家割包,臺北市中正區羅斯福路三段316巷8弄3號,25.0156409,121.5326387
阿春涼麵,臺北市中正區中華路二段401號,25.0260924,121.5081755
新東南海鮮餐廳,臺北市中正區汀州路一段105號,25.0286286,121.5089887
泰讚了 thai like tea 公館店,臺北市中正區羅斯福路三段286巷18號,25.015861,121.53236
Coppii Lumii living coffee 冉冉生活 城中,臺北市中正區永綏街7號,25.0431918,121.5109063
上海鄉村餐廳 濟南店,臺北市中正區濟南路二段37號,25.0408708,121.5297456
阿玉白糖粿,臺北市中正區新生南路一段12巷9弄5號,25.0438622,121.5321622
焦糖楓漢方無烟撒粉串燒 同安店,臺北市中正區同安街38號,25.0242186,121.5216827
龍潭豆花,臺北市中正區汀州路三段239號,25.01392,121.534102
無名首爾小吃,台北市南陽街20號,25.0448126,121.5160065
肉球森林,臺北市中正區新生南路一段160巷22之1號1樓,25.0345218,121.5304564
初牛 公館店,台北市汀州路3段169號,25.0152052,121.532296
忠青商行,臺北市中正區青島東路6之1號青島會館二館,25.0436355,121.5220039
胡饕米粉湯•黑白切 台大公館店,臺北市中正區羅斯福路三段284巷8號1樓,25.0159869,121.5318321
bb.q CHICKEN公館店,臺北市中正區汀州路三段153號,25.0158698,121.5314269
雙月食品社 濟南店,臺北市中正區濟南路一段7號1樓,25.0427329,121.5219127
Take out burger,臺北市中正區新生南路一段56巷6號,25.0410713,121.532221
客美多咖啡 Komeda‘s Coffee 台北站前店,臺北市中正區忠孝西路一段36號1樓,25.0459993,121.5170414
魔法咖哩Magic Curry,臺北市中正區忠孝西路一段38號B1,25.0462341,121.5164145
何家甜品鋪-剉冰雪花冰(公館汀州),臺北市中正區汀州路三段124號1樓,25.0139872,121.5336346
大戶屋 微風北車店,臺北市中正區北平西路3號2樓,25.0477467,121.5169983
生活在他方 elsewhere cafe,臺北市中正區重慶南路三段5號,25.029288,121.515624
老王記牛肉麵,臺北市中正區桃源街15號,25.0416805,121.510559
樺林乾麵,臺北市中正區中華路一段91巷15號,25.0378876,121.508031
ALL DAY ROASTING COMPANY 師大店,臺北市中正區師大路177號,25.02067,121.526735
菠蘿麵包 ぼろパン BOLO PAN 公館店,臺北市中正區羅斯福路四段80號,25.0141602,121.5346822
阜杭豆漿,臺北市中正區忠孝東路一段108號2樓,25.043898,121.524815
蘭苑私廚 Orchid Court,臺北市中正區金華街30巷1號,25.0313307,121.5208675
大杵臼 ส้มตําครกยักษ์,臺北市中正區思源街1號『公館水岸廣場』,25.0112512,121.5284012
同心大腸蚵仔麵線,臺北市中正區同安街16號,25.025303,121.5223845
無名鹹粥,臺北市中正區汀州路一段90號,25.0302335,121.5074704
楊記潤餅,台北市中正區羅斯福路四段108巷2號,25.0132934,121.5353407
龍記搶鍋麵,臺北市中正區衡陽路84巷5號,25.0420479,121.5109083
上村牧場 微風北車店,臺北市中正區北平西路3號2樓,25.0477467,121.5169983
石研室 石頭火鍋 和億北車店,臺北市中正區忠孝西路一段36號和億北車站B1F,25.0460066,121.5169442
Simple Kaffa 興波咖啡旗艦店,臺北市中正區忠孝東路二段27號,25.043916,121.527809
一派胡塩 酵素臭豆腐 萬大店,臺北市中正區萬大路86號,25.030482,121.5003764
Kakigori Toshihiko,台北市中正區金門街2-2號,25.0231297,121.5248452
雙月食品社 青島店,臺北市中正區青島東路6之2號,25.0437017,121.5220376
原來上海,臺北市中正區仁愛路一段17號,25.0391392,121.5222359
Vice Versa Wineshop & Kitchen,臺北市中正區廈門街94號,25.0241662,121.51736
93番茄牛肉麵,臺北市中正區青島東路3之2號,25.0438201,121.5225368
東東好生活,臺北市中正區齊東街76號,25.0417384,121.5276255
墨洋拉麵,臺北市中正區羅斯福路四段136巷10號,25.0125938,121.5354431
雞肉本家,臺北市中正區八德路一段82巷9弄22號,25.0434556,121.5314877
溫咖哩 Wen Curry,臺北市中正區濟南路二段3號之八,25.0415863,121.52656
臭老闆現蒸臭豆腐-本店,臺北市中正區中華路二段313巷6號,25.0281299,121.5061454
瓦崎燒烤火鍋 公館店,臺北市中正區羅斯福路四段24巷5號,25.0153269,121.5328445
蚵仔麵線佳鑫檸檬,臺北市中正區泉州街32之2號,25.0259953,121.5135301
青島排骨便當,臺北市中正區青島東路3號之3,25.0440657,121.5216022
太陽蕃茄拉麵,臺北市中正區忠孝西路一段38號B1樓,25.0462341,121.5164145
豬肝榮仔 南機場直營店,臺北市中正區中華路二段313巷10號,25.0282027,121.5062395
青鳥Bleu&Book,台北市八德路一段1號,25.0432788,121.5293005
松青潤餅,臺北市中正區中華路二段311巷4號,25.0283108,121.5058832
豆味行,臺北市中正區南昌路一段64號,25.0312586,121.5170622
台北凱撒大飯店,臺北市中正區忠孝西路一段38號,25.0460991,121.5162582
B-Line By A Train,台北市中正區忠孝東路二段104號2樓,25.0426694,121.5307428
30 ice cream,臺北市中正區市民大道一段100號臺北地下街Y22入口處,25.0495017,121.5136386
uPoke 夏威夷生魚飯 水源門市,臺北市中正區思源街16號,25.0137039,121.5283471
曼德樂泰式料理,臺北市中正區汀州路三段239號,25.01392,121.534102
SHAPE2GO,臺北市中正區青島東路25之2號,25.043342,121.5245359
小螺波 XIAO LUO BO 公館店,臺北市中正區羅斯福路三段284巷11號一樓,25.0161115,121.5317046
純愛小吃部 Pure Love Diner Bar,臺北市中正區汀州路三段104巷9號,25.0138878,121.5334094
十二廚 (喜來登大飯店),臺北市中正區忠孝東路一段12號,25.0445802,121.5224401
彼得好咖啡（南門店）Peter Better Cafe,臺北市中正區羅斯福路一段24號,25.0315867,121.5188579
三鱻食堂,臺北市中正區濟南路二段58之3號,25.0401596,121.5317959
金家飯捲 KOREA GIMBAP 김가김밥,臺北市中正區金門街2之3號,25.0216899,121.523113
BAC Cake & Sweets,臺北市中正區忠孝西路一段38號,25.0460991,121.5162582
Chirle Brown 查理布朗烘焙 微風北車店,臺北市中正區北平西路3號,25.0473199,121.5160463
北棲 邸家,臺北市中正區忠孝東路二段40號,25.0433978,121.5280424
金雞園,臺北市中正區羅斯福路三段316巷8弄3之1號,25.0156061,121.5326131
陳記燒臘,臺北市中正區濟南路二段62巷3號,25.03982,121.5320925
偷飯賊 微風台北車站店,臺北市中正區北平西路3號微風臺北車站店2樓,25.0473866,121.5167338
華山-合掌村,臺北市中正區忠孝東路一段108號1樓,25.0439297,121.52488
初面,臺北市中正區信陽街30號,25.0445044,121.5153424
晉江茶堂,臺北市中正區晉江街1號,25.0264156,121.5211193
隱家拉麵 公館店,臺北市中正區羅斯福路四段52巷1之1號,25.0147431,121.5334062
首爾之家,臺北市中正區羅斯福路三段244巷10弄14號,25.0159906,121.5313533
小隱茶庵,臺北市中正區杭州南路一段143巷12之1號,25.0359438,121.5254682
劉媽媽飯糰,臺北市中正區杭州南路二段88號,25.0294057,121.5218533
城中市場老牌牛肉拉麵大王,臺北市中正區重慶南路一段46巷7號,25.044524,121.5126185
明星咖啡館,臺北市中正區武昌街一段5號2樓,25.044216,121.512783
有飲 Youin 創意飲品 台北公館店,臺北市中正區汀州路三段221號,25.014104,121.533866
辛殿麻辣鍋 公館店,臺北市中正區羅斯福路三段316巷9弄1號,25.0155646,121.5318506
旨燕,臺北市中正區開封街一段90號,25.0459023,121.5103926
素食地瓜球,臺北市中正區羅斯福路四段108巷8之1號,25.0131352,121.5350312
小木斑馬 Brunch & coffee,臺北市中正區羅斯福路二段66巷16號,25.0274835,121.5211246
楽坡BonBox - 台北站前店 / 樂坡舒肥健康餐盒,臺北市中正區信陽街26之1號,25.0444759,121.5154778
Louisa Coffee 路易莎咖啡(忠孝善導寺門市),臺北市中正區忠孝東路一段148號,25.0440206,121.5256897
如意黑糖挫冰,臺北市中正區中華路二段313巷35號,25.0288315,121.5067818
魚君 さかなくん 海鮮公有市場,臺北市中正區金山南路一段35號,25.03989,121.5291646
東石小館,台北市中正區汀州路三段168號,25.0132791,121.5345966
維都 公館店,臺北市中正區羅斯福路三段244巷13號,25.0167608,121.5306069
華國早餐店,臺北市中正區青島東路23號,25.0434214,121.5242942
古北饕,臺北市中正區金門街1之6號,25.0212346,121.5230208
午冬甜點工作室,臺北市大安區樂利路33號,25.0272534,121.5515855
酷覓星-誠品站前店 世界美食評鑑伴手禮,台北市中正區忠孝西路一段49號B1,25.0477952,121.5175009
振頤軒 忠孝新生門市,臺北市中正區忠孝東路二段102號,25.0427722,121.5305971
廣州餐廳,臺北市中正區中華路二段427號,25.0253749,121.5089564
肥前屋,中山北路一段121巷13-2號,25.0511966,121.5237236
南機場汕頭乾麵,臺北市中正區中華路二段307巷15號,25.029153,121.5056461
Dicos德克士脆皮炸雞 台北重慶南店,臺北市中正區重慶南路一段100號,25.042622,121.513072
YU POKÉ-夏威夷生魚飯,臺北市中正區羅斯福路四段24巷12弄4號,25.0149813,121.5328707
饗聚廚房 台北花園大酒店,臺北市中正區中華路二段1號1樓,25.0362632,121.5068994
職業吃漢 食硏所,臺北市中正區汀州路二段323號,25.0215302,121.5249982
潮·雞·派,臺北市中正區汀州路二段82號,25.0250058,121.5188577
鴉片粉圓,臺北市中正區羅斯福路四段52巷16弄4號,25.0144253,121.5336442
欣葉日本料理自助餐聽,臺北市中正區館前路12號6樓,25.0456618,121.5147282
Petit France 小法國餐館,臺北市中正區青島東路21之4號善導寺捷運站,25.04344,121.5241354
東一排骨總店,臺北市中正區延平南路61號2樓,25.0446526,121.5104239
公館阿姨滷味,臺北市中正區羅斯福路三段286巷12號,25.0159912,121.5323101
吸手吃早午餐,臺北市中正區愛國西路50之4號一樓,25.0367215,121.5074307
山內雞肉,臺北市中正區中華路二段307巷20之3號,25.0290439,121.5058841
和牛涮樂日式涮涮鍋 公館店,臺北市中正區汀州路三段92號,25.0145493,121.5327671
公館活蝦,台北市中正區汀洲路三段210號,25.0120475,121.5355231
山海樓,臺北市中正區仁愛路二段94號,25.0379156,121.531396
池先生 Kopitiam 公館店,臺北市中正區羅斯福路三段284巷10號,25.015967,121.531804
鐘予原味當歸鴨 公館店,臺北市中正區汀州路三段81號,25.0176908,121.5287425
大嗑西式餐館,臺北市中正區濟南路二段18之3號,25.0410911,121.5265497
貳樓餐廳Second Floor Cafe,臺北市中正區北平西路3號,25.0473199,121.5160463
大三元酒樓,臺北市中正區衡陽路46號,25.0420174,121.5122878
蘇記餃子館,臺北市中正區延平南路101巷5號,25.04268,121.511029
興鐵板燒,臺北市中正區仁愛路二段7號,25.0385041,121.5258217
快樂檸檬Happylemon 公館旗艦店,臺北市中正區羅斯福路四段24巷14號,25.0149221,121.5327484
超能量鱸魚湯,臺北市中正區中華路二段309巷44號,25.0292036,121.5065997
柳州螺螄粉,臺北市中正區南海路28號,25.032234,121.516129
MKCR 山小孩咖啡,臺北市中正區忠孝西路一段126號,25.0474238,121.5108841
魅麗海 中庭餐廳 (德立莊店),臺北市中正區秀山街4號,25.0425228,121.5094326
青島飯團,臺北市中正區青島西路13號,25.0450638,121.5176335
三統漢菓子 台北車站店,臺北市中正區北平西路三號一樓,25.0473892,121.5159555
文慶雞,臺北市中正區忠孝東路二段33號,25.0439111,121.5278014
壹森泰食堂~師大第一腿(公館店）,臺北市中正區汀州路三段283號,25.0122685,121.5356061
林家乾麵店,臺北市中正區泉州街11號,25.031331,121.513444
油条 黃金牛肉粉,臺北市中正區南海路17號,25.0321619,121.5146947
三味香,臺北市中正區桃源街19號,25.0415572,121.5105702
777咖啡,臺北市中正區市民大道100號,25.0487071,121.5142185
COFFEE TO (國家攝影文化中心門市),臺北市中正區忠孝西路一段70號1樓,25.0466999,121.514495
桃山 Momoyama,臺北市中正區忠孝東路一段12號2樓,25.0445802,121.5224401
鉄火燒肉 微風北車店,臺北市中正區北平西路3號2樓,25.0477467,121.5169983
A Small Place,臺北市中正區牯嶺街95巷51號,25.0257857,121.5203749
人性甜點,臺北市中正區羅斯福路三段286巷4弄1號,25.0159256,121.532056
請客樓 (喜來登大飯店),臺北市中正區忠孝東路一段12號17樓,25.0445802,121.5224401
小菜館 韓式拌飯,臺北市中正區羅斯福路二段30巷9號,25.0281384,121.5208586
東北之家酸菜白肉鍋 青島店,臺北市中正區青島東路5號,25.044071,121.5220537
東雛菊-風味鍋物,臺北市中正區汀州路三段127號,25.0163858,121.530596
捲捲村,臺北市中正區中華路二段313巷5弄20之1號,25.0282771,121.5061166
SUKHOTHAI 蘇可泰泰 (喜來登大飯店),臺北市中正區忠孝東路一段12號,25.0445802,121.5224401
秘魯烤雞 Polleria,臺北市中正區牯嶺街61之5號,25.0292041,121.5171752
貳樓餐廳Second Floor Cafe 仁愛店,臺北市中正區仁愛路二段108號,25.0379274,121.5324046
麵屋武藏 本店,臺北市中正區忠孝西路一段36號B1,25.0460142,121.516942
蘇杭餐廳,臺北市中正區濟南路一段2之1號,25.0429232,121.5198047
黑滷魯肉飯,臺北市中正區汀州路二段238號,25.0217729,121.5244071
勝十蘭拉麵,中正區南陽街13-2號,25.045004,121.5161754
佳園排骨麵,臺北市中正區林森南路59之2號,25.0399269,121.5222094
Q丸和洋食堂(台北站前店),臺北市中正區忠孝西路一段47號B1樓,25.0465183,121.5174415
人从众 台北公館店,臺北市中正區汀州路三段127號1樓,25.0163858,121.530596
辰園 (喜來登),臺北市中正區忠孝東路一段12號B1,25.0447021,121.5219894
勺勺客 陜西餐館,臺北市中正區杭州南路一段27號,25.0420021,121.5264035
阿亮水餃,臺北市中正區中華路二段309巷15號,25.0289474,121.5057989
Hoo. Donut 呼點甜甜圈,臺北市中正區南昌路二段7之2號,25.028439,121.519429
阿泉麵線,臺北市中正區許昌街26之3號,25.0454432,121.5163986
鄭記豬腳飯,臺北市中正區延平南路22號,25.0468864,121.5108506
WingsCoffee_Bar,臺北市中正區三元街38號,25.0299194,121.5082761
赤神日式豬排,臺北市中正區羅斯福路3段286巷4弄14號,25.0157941,121.5318107
汪記餅家-手作燒餅(南機場店),臺北市中正區中華路二段309巷35號南機場夜市,25.0291603,121.5059145
何太守港式菠蘿包專賣店,臺北市中正區汀州路三段167號,25.0152642,121.5323292
騰堂麵包茶飲,臺北市中正區汀州路三段135號,25.0161423,121.5309657
賢夫美食,臺北市中正區羅斯福路四段92號79攤,25.0135188,121.534971
南機場夜市車輪餅,臺北市中正區中華路二段327號一樓,25.027681,121.5064552
旺來甜冰品-Wang Lai Ice Shop,臺北市中正區羅斯福路四段92號水源市場一樓100號,25.01371,121.534983
友蓁豆花店,臺北市中正區同安街63之2號,25.0239797,121.5216868
蘇杭点心店,臺北市中正區羅斯福路二段14號,25.0286513,121.52092
蜀來飽川味小吃,臺北市中正區汀州路二段96號1樓,25.0248971,121.5193665
好佳蚵嗲,臺北市中正區中華路二段315巷4弄南機場夜市,25.0291603,121.5059145
王記排骨酥湯,臺北市中正區汀州路二段81號1F,25.0255769,121.517245
GinGin Coffee Company,臺北市中正區臨沂街27巷9號1樓,25.0409661,121.5312619
U & me 找咖,臺北市中正區羅斯福路二段66巷8號1樓,25.0274397,121.5212824
鑫耀鑫,臺北市中正區公園路20巷12號,25.04507,121.5165803
居食屋「和民」 站前店,臺北市中正區館前路6號2樓,25.0460957,121.5148151
南機場汕頭乾麵,臺北市中正區中華路二段311巷,25.0287032,121.5062855
黃龍莊,臺北市中正區牯嶺街43號,25.0299998,121.5166002
阿榮羊肉飯,臺北市中正區三元街262號,25.0273075,121.5137972
Pizzapub比薩屋 (喜來登大飯店),臺北市中正區忠孝東路一段12號,25.0445802,121.5224401
特有種商行,臺北市中正區臨沂街27巷4之1號,25.0408636,121.5309843
Doze,臺北市中正區同安街85之8號,25.0229175,121.5209467
open it. 瑪德蓮專門品牌q 微風北車店,臺北市中正區北平西路3號,25.0473199,121.5160463
新馬辣經典鴛鴦鍋-公館店,臺北市中正區汀州路三段295號,25.011975,121.5357848
恆記港式燒臘,臺北市中正區開封街一段29號,25.045859,121.5143519
桔子早午餐,臺北市中正區青島東路21之8號,25.04344,121.5241354
bonniesugar手作甜點店 森林店,臺北市中正區北平東路9號,25.0465885,121.5234397
niko bakery 日香高級吐司專門店 華山店,臺北市中正區忠孝東路二段23號1樓,25.0439449,121.527723
悄悄好食 杭州南店,臺北市中正區杭州南路一段11巷4號,25.0431724,121.5272432
茗捷印尼餐廳,臺北市中正區市民大道100號臺北地下街Y26,25.0495017,121.5136386
劉記川味牛肉麵,臺北市中正區羅斯福路三段316巷8弄6號,25.0154945,121.5325315
Half coffee,臺北市中正區羅斯福路三段286巷4弄4號1樓,25.015986,121.532084
三統漢菓子 微風北車店,臺北市中正區北平西路3號臺北車站1樓微風廣場一樓近南二門,25.0480075,121.5170613
灌老闆,臺北市中正區紹興北街25號,25.0451167,121.5254276
大黑松小倆口牛軋糖喜餅 博愛總店,臺北市中正區博愛路99號,25.043002,121.511644
寧波生煎包,臺北市中正區羅斯福路一段59號,25.0318815,121.5192094
蛋要酷 手工蛋餅專賣店,臺北市中正區信陽街26之4號,25.0444759,121.5154778
達文西咖啡davincicoffee 溫州店,臺北市大安區溫州街58巷2號1F,25.0206295,121.5329435
水牛城美式炭烤牛排,臺北市中正區杭州南路二段94號,25.0292197,121.5217929
雪王冰淇淋,臺北市中正區武昌街一段65號2樓,25.044236,121.510398
大戶屋 遠百寶慶店,臺北市中正區寶慶路32號B1,25.0416016,121.5090412
秋嗨嗨冰店,臺北市中正區羅斯福路二段30巷11號,25.0280987,121.5208773
鷹流拉麵極匠,臺北市中正區汀州路三段104巷4號,25.014119,121.533136
江蘇老宜記燒餅舖,臺北市中正區南昌路一段59巷14號,25.03162,121.51802
成都抄手麵食 China Dumpling Noodle,臺北市中正區重慶南路一段46巷3號,25.0445452,121.5127596
Paper St. Coffee 紙街咖啡,臺北市中正區八德路一段28號,25.0435567,121.530308
合歡刀削麵館,臺北市大安區杭州南路二段55號2樓,25.0325548,121.522821
防空洞｜補給站-健康餐盒（林森南店）,臺北市中正區林森南路3巷1號,25.0443362,121.5236282
小飯館兒,臺北市中正區汀洲路三段202號,25.0122075,121.5354191
古早味麵店,台北市中正區汀州路一段210號,25.0278367,121.5095073
彌生軒 YAYOI 懷寧店,臺北市中正區懷寧街21號2樓,25.0452966,121.5143127
白糖粿,臺北市中正區羅斯福路四段108巷4之2號,25.013182,121.5352561
黑洞珈琲店,臺北市中正區羅斯福路三段210巷8弄7號,25.0182028,121.5295737
咖食堂,臺北市中正區八德路一段82巷9弄13號,25.0435921,121.5314457
良品牛肉麵館,臺北市中正區開封街一段10號,25.0458232,121.5142984
王功鮮蚵之家,臺北市中正區中華路二段305巷15之1號,25.0294273,121.505472
新驛旅店西門捷運店,臺北市中正區寶慶路63號,25.0418882,121.5092913
塩琉,臺北市中正區重慶南路一段116號,25.041916,121.513028
overthink 餐飲小吃部,臺北市中正區廈門街34巷2號,25.0257848,121.5173133
黑毛屋 微風台北車站店,臺北市中正區北平西路3號2樓,25.0477467,121.5169983
夫妻飯莊 南機場夜市,臺北市中正區中華路二段313巷19號,25.0285186,121.5063471
金湘台灣小吃,臺北市中正區新生南路一段14號,25.0434057,121.532549
頂香蚵仔麵線 .南部肉粽店,臺北市中正區汀州路一段111號一樓,25.028453,121.50913
日本橋浜町酒食处 微風北車店,臺北市中正區北平西路3號2樓,25.0477467,121.5169983
聚北海道鍋物 台北衡陽店,臺北市中正區衡陽路3號2樓,25.0424957,121.5138702
尖蚪,臺北市中正區汀州路三段230巷57號,25.0104627,121.5318882
飯糰霸,臺北市中正區許昌街2號,25.0454314,121.517089
慶三號烤肉倉庫早午餐,臺北市中正區延平南路19號,25.045783,121.51078
宜賓燃麵,臺北市萬華區西藏路18號,25.0307206,121.5074967
米澤製麵 台北公館店,臺北市中正區羅斯福路四段132號一樓,25.0129836,121.5357926
鬧咖啡 NOW coffee,臺北市中正區延平南路58號,25.0455055,121.5104056
添財日本料理 開封店,臺北市中正區開封街一段38號,25.045895,121.512331
魚刺人雞蛋糕 台北師大店,臺北市中正區羅斯福路二段30巷13號,25.0279662,121.5209975
來碗Laksa,臺北市中正區濟南路二段60之5號,25.0401405,121.5321189
艸藴,臺北市中正區和平西路一段81號,25.0268485,121.5182848
墾丁蛋蛋ㄉㄨㄞ奶,臺北市中正區汀州路三段165號,25.0152949,121.532295
鱷吐司 A Toast,台北市中正區羅斯福路三段316巷8弄7號,25.0153909,121.5326765
黑白切,台北市中正區中華路二段311巷22-3號,25.0287567,121.5065007
布夫 歐式私房菜 La Bonne Bouffe,臺北市中正區忠孝東路二段37號2樓,25.043854,121.528033
富久湯圓大王,臺北市中正區臨沂街84巷7號,25.034504,121.527571
南機場芋頭大王,臺北市中正區中華路二段313巷5號,25.0282771,121.5061166
來來水餃店,臺北市中正區中華路二段309巷9號,25.0287774,121.505733
一番地壽喜燒 古亭,臺北市中正區和平西路一段80號,25.0263293,121.5187718
卡洛貍健康餐盒 北車店,臺北市中正區公園路30巷4號,25.0439666,121.5166206
晴天廚房,臺北市中正區寧波東街11之2號,25.0329709,121.5201967
喬喜蛋炒飯專賣店,臺北市中正區臨沂街3巷7號,25.0433606,121.5312936
秋紅肚房,臺北市中正區汀州路三段230巷43號,25.0106803,121.5322649
張吳記麵餅舖,臺北市中正區杭州南路二段44之1號,25.0308408,121.5220919
Mr.wiiwii威威醬自家製千層店KAKAKA,台北市中正區北平西路3號,25.0473199,121.5160463
玉米家,中正區中華路二段315巷5弄9號攤位,25.0290144,121.5060863
茂生百味,臺北市中正區和平西路一段30號2樓,25.026574,121.5205593
Musa咖哩餅,臺北市中正區中華路二段307巷70號攤位,25.0294764,121.5065091
劉山東牛肉麵,臺北市中正區開封街一段14巷2號,25.0457149,121.5137602
咖啡休日 Day off.,臺北市中正區羅斯福路四段136巷6弄23號1樓,25.0122635,121.5358449
草頭西餐酒館,臺北市中正區金門街25之2號,25.0211304,121.5228437
Heritage Bakery & Cafe,臺北市中正區漢口街一段73號之2,25.0452987,121.5118418
Engolili 英格莉莉 微風北車店,台北市中正區北平西路3號西三門2樓,25.0477467,121.5169983
阿仁福州包,臺北市中正區南陽街5號,25.0453242,121.516177
桂冠窩廚房 Joy' in Kitchen,臺北市中正區羅斯福路三段126號,25.0205742,121.5279607
山內雞肉古亭店,臺北市中正區和平西路一段132號,25.0269014,121.5167267
老同安小酒館,臺北市中正區同安街24號,25.0248113,121.5222461
來呷甜甜品,臺北市中正區延平南路11號1樓,25.0461958,121.5108528
糖品角屋,臺北市中正區中華路二段303巷2號,25.029223,121.5050271
大山東餅舖,臺北市中正區羅斯福路四段92號,25.0135188,121.534971
新平洞 김밥,臺北市中正區信義路二段79巷16之6號,25.0353969,121.5268358
彰化肉圓 南機場,臺北市中正區中華路二段313巷36號,25.0284065,121.5062546
ZAC ZAG 一楽炸雞 中正南陽店,台北市中正區南陽街21號,25.0440612,121.5161405
馬叔餅舖,臺北市中正區臨沂街67之2號,25.0359292,121.5284088
井上天丼,台北市中正區汀州路三段166號,25.0133273,121.5345372
89 LOOP Sports Bar,臺北市中正區羅斯福路四段134號2樓號,25.0129485,121.5358227
這一小鍋 台北誠品站前店,臺北市中正區忠孝西路一段47號B1F,25.0469357,121.5154329
珍品小館,臺北市中正區青島東路7之5號,25.0441893,121.5223436
點水樓,臺北市中正區懷寧街64號,25.0439245,121.5139608
南門鯓丼,臺北市中正區南昌路一段59巷37號,25.0316448,121.518303
瓦城 台北三越站前店,臺北市中正區忠孝西路一段66號12樓,25.0461864,121.5153037
紅火食代 串燒專門店,臺北市中正區寧波西街1號,25.0315748,121.5188063
老熊牛肉麵店,臺北市中正區南海路38之2號,25.03216,121.515801
黃石 YELLOWSTONE,臺北市中正區金門街34巷9之3號,25.0214836,121.5225436
黃媽媽米粉湯,臺北市中正區信義路二段87號,25.0344712,121.5268393
惠 Q潤餅,臺北市中正區臨沂街73之1號,25.0350562,121.5280801
龍門客棧餃子館,臺北市中正區林森南路61巷19號,25.0396531,121.5230192
再睡5分鐘,臺北市中正區南陽街24號,25.0444048,121.5159993
福二漢堡製造所,臺北市中正區汀州路三段229號,25.0140145,121.5340263
欣鍋園涮涮鍋,臺北市中正區和平西路一段34號,25.0265463,121.5204347
Best義pasta食堂,臺北市中正區南陽街3號,25.0452988,121.5162058
CAFE N°185,臺北市中正區博愛路185號,25.0347699,121.5108937
雄記蔥抓餅,臺北市中正區羅斯福路四段108巷2號,25.0132934,121.5353407
La Grotta,臺北市中正區中華路一段77號,25.038885,121.5078383
Jup Jup Craft Beer Bar & Bistro 精釀啤酒餐酒館,臺北市中正區忠孝西路一段72之26號,25.0467057,121.5137929
藝奇新日本料理 ikki,臺北市中正區衡陽路52號,25.0420806,121.5120889
咕咕香酥雞蛋糕,臺北市中正區南陽街8號,25.0452276,121.5160061
光華日式車輪餅,臺北市中正區八德路一段82巷16號,25.0435407,121.5320568
FF.,臺北市中正區和平西路二段107號,25.0324992,121.5066543
銀座越南餐館,臺北市中正區羅斯福路三段286巷4弄6號,25.015952,121.532045
高麗園 三創店,臺北市中正區市民大道三段2號9樓,25.0453541,121.5311072
petit doux．微兜 Café Bistro,臺北市大同區承德路一段1號1樓,25.049308,121.5171935
劉記古早味蔥蛋餅,臺北市中正區羅斯福路四段108巷2之3號,25.0131689,121.5352644
瓦法奇朵,臺北市中正區信陽街29號,25.0447679,121.5156272
卡那達咖啡店,臺北市中正區臨沂街13巷5號,25.0423901,121.5309699
Q Five 多元義式餐廳,臺北市中正區信陽街3號2樓,25.0448176,121.5168605
貳樓餐廳 Second Floor Cafe 公館店,臺北市中正區羅斯福路三段316巷9弄7號,25.0157801,121.5316367
利隆餅店,臺北市中正區信義路二段79巷15號,25.0356664,121.5270035
添好運 HOYII北車站店,臺北市中正區忠孝西路一段36號,25.0460243,121.5169483
松鼠Bonbon cakery& café,臺北市中正區臺北市忠孝東路一段108號2樓,25.043898,121.524815
祥和蔬食精緻料理,臺北市中正區鎮江街1巷1號,25.0443616,121.5217918
清真黃牛肉麵館,臺北市中正區延平南路23號,25.0456689,121.510751
Chatime日出茶太-台北天成店,臺北市中正區忠孝西路一段41號之1號,25.0463392,121.5184207
曼鯊鯊餐坊,臺北市中正區南昌路一段74巷6號1樓,25.030863,121.517001
錢都日式涮涮鍋 汀州直營店,臺北市中正區汀州路二段100號,25.0248173,121.5194558
阿春姨米粉湯,台北市中正區濟南路二段54巷,25.0401716,121.5318066
友間食堂,台北市中正區和平西路一段14號,25.0267396,121.5214855
墨潮青蛙撞奶,臺北市中正區羅斯福路三段316巷１０號,25.0156333,121.5324369
尚家香雲南美味麵食館,臺北市中正區汀州路三段137號,25.0161547,121.5309498
三時午咖哩屋,臺北市中正區羅斯福路四段92號,25.0135188,121.534971
龍哥無骨雞腿排,台北市羅斯褔路四段108巷10號,25.013129,121.5350852
東門鵝肉攤,臺北市中正區臨沂街84巷3號,25.034464,121.527673
Little M cafe,臺北市中正區和平西路一段57號1樓,25.0267198,121.5197716
紅葉日式愛好燒,台北市中正區晉江街18巷18弄4號,25.0258129,121.5206896
劉記四神湯,臺北市中正區南昌路夜市,25.028629,121.5190686
小魯玉山東大餅,臺北市中正區杭州南路二段52號,25.0304201,121.5220352
蘭花亭涼麵,臺北市中正區廈門街77之3號,25.0246697,121.5175907
春水堂 中正店,臺北市中正區中山南路21之1號,25.0368934,121.5193872
御景日本料理,臺北市中正區林森南路2之4號,25.044331,121.5229829
立家粽子 逸湘齋美食,臺北市中正區羅斯福路一段8號,25.0324803,121.5180034
銀座杏子日式豬排 台北凱撒店,臺北市中正區忠孝西路一段38號B1,25.0462341,121.5164145
夏慕尼新香榭鐵板燒 台北南昌店,臺北市中正區南昌路二段112號,25.0257837,121.5220567
聚北海道昆布鍋,臺北市中正區南昌路二段216號,25.0239122,121.5244446
香色,臺北市中正區湖口街1之2號,25.0331174,121.5145954
八棟圓仔湯,臺北市中正區中華路二段309巷20號,25.0289267,121.5059821
聾啞雞蛋糕,臺北市大安區汀州路三段253號,25.0130544,121.5351257
米米珈琲 MiMi's Cafe,臺北市中正區羅斯福路三段284巷15號,25.0158858,121.5315007
怪舒芙Monster Souffle,臺北市中正區羅斯福路四段136巷3號,25.0127831,121.5352608
丘比手作土司早午餐(Cube Brunch),臺北市中正區忠孝東路一段108號2樓,25.043898,121.524815
AP203Bar 早餐了沒 台北延平A店,臺北市中正區延平南路88號,25.0444793,121.5101038
綠水棧,台北市大安區新生南路一段168-8號,25.0342892,121.5324428
定食8爭鮮餐飲,臺北市中正區林森南路142號2樓,25.0332444,121.5181789
寶船日本料理,臺北市中正區仁愛路二段93之1號,25.0383914,121.5317561
beardpapa日式泡芙工房,臺北市中正區北平西路3號2F,25.0473199,121.5160463
麻辣巴蕾正宗重慶酸辣粉,臺北市中正區汀州路三段183號,25.0148108,121.5327455
雅竹鐵板料理,臺北市中正區濟南路一段9之2號,25.0426739,121.5221022
金格食品 站前店,臺北市中正區忠孝西路一段66號B2,25.0463126,121.51516
林記米粉湯,臺北市萬華區中華路二段313巷22號,25.0285205,121.506683
餵Way!,臺北市中正區辛亥路一段1號,25.0187584,121.5275328
Matcha One 齊東店,臺北市中正區齊東街53巷10號,25.041366,121.5290469
山藥餅,臺北市中正區重慶南路一段38號,25.0448711,121.5131298
頌丹樂,台北市中正區北平西路3號2樓近西一門,25.0475172,121.5159125
N2-coffee Bike 氮氣冷萃咖啡,臺北市中正區信義路二段17巷10號,25.035868,121.5255546
捲捲人生「奶油捲專賣店」,台北市北平西路3號,25.0473199,121.5160463
山田珈琲店,臺北市大安區羅斯福路三段283巷21弄3號1樓,25.0198755,121.5315302
勝博殿,臺北市中正區忠孝西路一段66號12樓,25.0461864,121.5153037
站食可以,台北市中正區羅斯福路三段316巷8弄12-1號,25.0153735,121.5326376
くら寿司 藏壽司 台北館前店,臺北市中正區館前路12號5樓,25.0456618,121.5147282
南昌手工包子店（原金華街）,台北市中正區南昌路二段131號,25.0261609,121.522126
萬中肉骨茶,臺北市中正區汀州路一段113號,25.028398,121.5092051
正鋒自助餐,臺北市中正區林森南路3巷3號1F,25.0443408,121.523704
財哥福州麵,臺北市中正區西藏路10號,25.0306967,121.5076864
森本家拉麵,台北市忠孝東路二段134巷20號,25.0407835,121.5316808
同安街麵線羹,臺北市中正區同安街85之1號,25.0229175,121.5209467
JIATE 新光站前店,臺北市中正區忠孝西路一段66號B1,25.0461497,121.5152982
貳家桌遊 北車店,臺北市中正區公園路20巷15號3樓,25.0451898,121.5164081
一番地壽喜燒(台北店),臺北市中正區開封街一段48號,25.045817,121.514481
吉豚屋かつや,台北市中正區忠孝西路一段36號,25.0460243,121.5169483
祥滿速食餐坊-清蒸鮮魚（海鮮火鍋）,台北市羅斯福路四段92號1樓5356攤位水源市場內,25.01371,121.534983
SGP 新加坡美食,臺北市中正區公園路20巷14號,25.0450731,121.5165218
鍋in百元風味火鍋,臺北市中正區汀州路三段196號,25.0123666,121.5352873
沐樂咖啡 新生店,臺北市中正區臨沂街13巷7號,25.0423597,121.5310883
金大鋤壽喜燒SUKIYAKI 三創店,臺北市中正區市民大道三段2號9樓,25.0453541,121.5311072
濟南牛肉麵,臺北市中正區濟南路二段60之3號,25.0401405,121.5321189
和園川味小吃,臺北市中正區紹興南街5之2號,25.0436111,121.525
貳家桌遊 復興北店,臺北市松山區長安東路二段215號10樓,25.0484092,121.5445221
北平上園樓,臺北市中正區林森南路4號,25.043956,121.5229715
咖啡學人-老傑克 The Cafeist & Old Jack,臺北市中正區金門街4號,25.0229383,121.524468
九日咖啡 自家烘焙咖啡館（二店）,臺北市中正區青島西路11號,25.0450483,121.5177209
戰醬燒肉,臺北市中正區羅斯福路三段316巷7之3號,25.0156779,121.532234
INTERMISSION 中場休息 Cafe',臺北市中正區汀州路三段149號1樓,25.015961,121.531258
animate cafe 台北北門店,臺北市中正區博愛路7號1樓,25.0461373,121.5114628
周記手工家常麵,臺北市中正區漢口街一段80巷12之5號,25.0445813,121.5121042
Caviar café+ brunch 魚子醬咖啡,臺北市中正區齊東街68號,25.0418525,121.5279243
城中豆花伯五十年老店,臺北市中正區漢口街一段80巷,25.0446588,121.5122751
我不怕你泰胖,臺北市中正區中華路二段75巷1弄13號,25.0343939,121.5064452
Hamster Dessert 倉鼠甜點工作室,臺北市中正區杭州南路一段14之7號,25.0396989,121.5242042
樂雅樂家庭餐廳,臺北市中正區許昌街19號,25.0456755,121.5165906
炎弟炒飯鐵板燒 公館店,臺北市中正區汀州路三段208號,25.0121035,121.535495
鼎豐記上海蟹殼黃,臺北市中正區衡陽路94號,25.042128,121.510696
一家川菜小館,臺北市中正區中華路二段305巷15號,25.0294273,121.505472
徐記川菜,臺北市中正區中華路二段301巷16號,25.0297465,121.5051772
祥記號美食小吃,臺北市中正區羅斯福路四段92號,25.0135188,121.534971
麻煮MiNi麻辣煲 公館店,臺北市中正區汀州路三段273號1樓,25.0124864,121.5354882
泰味鮮,臺北市中正區羅斯福路三段316巷8弄3之4號,25.0156061,121.5326131
坂田家廚房,臺北市中正區青島東路4之2號1樓,25.0438749,121.5214541
PRIME ONE牛排館 (台北花園大酒店),臺北市中正區中華路二段1號,25.0363705,121.5068203
Drip Cafe 好滴咖啡,台北市台北市中正區南陽街1號2樓,25.0456512,121.5162179
三娘香菇肉粥,臺北市中正區南昌路二段4之3號,25.0250941,121.523075
富士山の豬,臺北市中正區延平南路36之1號,25.0463951,121.5107085
NUKI Coffee,臺北市中正區金門街5之1號,25.0213943,121.5228493
垃圾麵,臺北市中正區八德路一段82巷9弄14號,25.0434812,121.5317081
東方霸牛肉麵,台北市中正區杭州南路一段57號,25.0405532,121.5259843
Bar Link,臺北市中正區師大路164號,25.0211042,121.5258237
鶴茶樓- 鶴頂紅茶商店 北車信陽店,臺北市中正區信陽街18號,25.0445032,121.5156606
亞尼克菓子工房,臺北市中正區寶慶路32號,25.0414461,121.5090757
"台北時代寓所 Hotel Resonance Taipei, Tapestry Collection by Hilton",臺北市中正區林森南路7號,25.0439639,121.5235742
Rich Daddy cafe & kids 富爸爸餐飲會所,臺北市中正區金山北路1號2樓,25.0442097,121.5304393
淘客美式漢堡 北車店,臺北市中正區信陽街14號,25.0445919,121.5158014
金子半之助,台北市中正區北平西路3號2樓,25.0477467,121.5169983
鈜景國產肉品專賣店,臺北市中正區臨沂街70號,25.034584,121.527824
北北車魯肉飯,臺北市中正區公園路20巷21號,25.0452066,121.5162942
養鍋Yang Guo石頭涮涮鍋,臺北市中正區寧波西街81號,25.0303386,121.5167232
法點法食 FA DEN FA SAï,臺北市中正區汀州路三段210號,25.0120475,121.5355231
野草居食屋,臺北市中正區同安街28巷1號,25.0248237,121.5217016
老建中麵店,臺北市中正區泉州街39號,25.0290388,121.5145524
竜丼日式料理,臺北市中正區南昌路一段108巷1號2樓,25.0301389,121.5174888
芝生食堂 忠孝新生店,台北市中正區忠孝東路二段134巷1號,25.0415988,121.5317676
詠樂-野菜咖哩,臺北市中正區福州街3號1樓,25.0297426,121.5200389
鬼匠貳拉麵 咖哩飯,臺北市中正區寧波西街69號,25.030513,121.517049
徹思叔叔本店,臺北市中正區北平西路3號1樓號臺北車站大廳南二門,25.0480075,121.5170613
璞滿滿,臺北市中正區徐州路34號,25.0405954,121.523547
小李便當店,臺北市中正區濟南路二段3號,25.0416754,121.5266074
泰享喝商行泰式茶飲,臺北市中正區羅斯福路四段138號,25.0129577,121.5358972
彼得好咖啡 三創門市,臺北市中正區八德路一段104號,25.0441289,121.5324731
幸福村潤餅,臺北市大安區羅斯福路三段316巷內,25.0160833,121.5328368
Learn Bar 學吧精釀,臺北市中正區信義路二段253號1樓,25.0338644,121.531387
東門御園坊 手工水餃,臺北市中正區信義路二段79巷13號,25.0350518,121.5268814
8 1/2 oz 漢堡,臺北市中正區汀州路二段186號,25.0227701,121.5230166
三元堂拉麵專門店,臺北市中正區三元街52號,25.0292681,121.5089805
馬辣頂級麻辣鴛鴦火鍋,臺北市中正區汀州路三段86號,25.0146237,121.5326422
兄弟蚵仔麵線,臺北市中正區汀州路三段235號,25.0139087,121.5341141
大河屋 燒肉丼 串燒 微風北車店,臺北市中正區北平西路3號2樓,25.0477467,121.5169983
梅江韓國烤肉,臺北市中正區思源街10號,25.014916,121.5317983
雞三和 微風台北車站,臺北市中正區北平西路3號2樓,25.0477467,121.5169983
魚バカ,台北市中正區信義路二段81號,25.0347273,121.5267743
貴哥福州麵,臺北市中正區中華路二段307巷9號,25.0290468,121.5055341
星巴克時代寓所門市,臺北市中正區林森南路7之1號,25.0439639,121.5235742
12MINI經典即享鍋-捷運公館店,臺北市中正區羅斯福路三段316巷14號,25.0155113,121.5323408
蔡萬興,臺北市中正區和平西路一段118號,25.0268619,121.5170777
初 拉麵&煎餃,臺北市中正區南昌路一段59巷17號,25.0314083,121.5179171
藍記麻辣,臺北市中正區金山南路一段19號,25.0405319,121.5293519
康記老麵包子專賣店,臺北市中正區寧波西街48號,25.030785,121.517853
兩點(手作茶飲+車輪餅) 公館店,臺北市中正區汀州路三段185號,25.0147314,121.5328485
小吉市場,臺北市中正區南昌路二段111號,25.0264962,121.5216803
玖伍牛肉麵,台北市中正區八德路一段82巷8號,25.0437767,121.5319276
奧蘿茉CAfe北車店,臺北市中正區南陽街26號,25.0443976,121.5160299
甜心餐廳 台糖台北會館,臺北市中正區中華路一段39號,25.0453715,121.5098341
紅爐牛排館,臺北市中正區仁愛路二段32號,25.0380738,121.5271113
坦都理,臺北市中正區汀州路三段57號,25.018211,121.528006
南門福州傻瓜乾麵,台北市中正區南昌路一段59巷32號,25.0319878,121.5183944
易牙居餐廳,臺北市中正區羅斯福路三段286巷16號,25.0159491,121.5323595
幸福日式飯糰,臺北市中正區羅斯福路二段126之3號,25.0260819,121.522681
朝柴肉蛋吐司華山店,臺北市中正區紹興南街4之9號,25.0433429,121.5247006
4F劇場咖啡 Le Promenoir (中山堂),台北市中正區延平南路98號4樓,25.0425041,121.5103541
順園小館,臺北市中正區汀州路三段281號,25.0123845,121.5355485
麵屋輝,臺北市中正區伊通街8之1號,25.0495788,121.5346232
一兆堂鍋物,臺北市中正區北平西路3號2樓,25.0477467,121.5169983
橘村屋,臺北市中正區北平西路3號,25.0473199,121.5160463
珍記豬血糕,臺北市中正區汀州路三段187號,25.0146903,121.5330475
A Fabules Day,臺北市中正區信義路二段171號1樓,25.034033,121.52913
CAFE Macho早秋咖啡,臺北市中正區晉江街10號,25.026052,121.521129
Fun Juice 丰果汁 台大醫院兒童醫院店,臺北市中正區中山南路8號B1,25.0442304,121.5188189
小蒙牛精緻鍋物（涮）三創店,臺北市中正區市民大道三段2號9樓,25.0453541,121.5311072
梅門防空洞,臺北市中正區延平南路87號,25.043293,121.510837
万 象WANGXINAG,臺北市中正區同安街73巷10號,25.0231816,121.521609
小巷裁縫,臺北市中正區羅斯福路二段30巷5號,25.0282441,121.5208019
麥食達韓式料理,臺北市中正區懷寧街86號,25.042916,121.513943
阿妹麵店,臺北市中正區南昌路二段105號,25.026681,121.5215058
王朝餐廳 凱撒飯店,臺北市中正區忠孝西路一段38號3F,25.0460991,121.5162582
小南門福州傻瓜乾麵,臺北市中正區延平南路153號,25.0354294,121.5078478
別處咖啡 Away cafe,臺北市中正區羅斯福路三段244巷9弄2之1號,25.0170063,121.5303878
乾杯 台北總站,臺北市中正區北平西路3號臺北車站2樓,25.0480075,121.5170613
老爺爺葡式蛋塔,台北市中正區羅斯福路四段24巷11-1號,25.0151525,121.5326372
咖啡長在咖啡樹,臺北市中正區忠孝東路二段39巷2弄18號一樓,25.044321,121.527394
愛天空台北本店,臺北市中正區忠孝東路二段134巷8號,25.0418182,121.5316145
誇張古懂咖啡店,臺北市中正區臨沂街40之5號,25.037757,121.5291992
Shishlik Pita x Kebab 西西里克中東串燒（餐館店）,臺北市中正區羅斯福路四段138號2樓,25.0128644,121.5358764
重順川菜餐廳,臺北市中正區羅斯福路三段316巷8弄3之2號,25.0156061,121.5326131
臭老闆現蒸臭豆腐 二店,臺北市中正區中華路二段309巷46號,25.029244,121.506652
阿鸞手工法國麵包,臺北市中正區羅斯福路四段90巷,25.0137931,121.5347923
微風台北車站,臺北市中正區北平西路3號,25.0473199,121.5160463
Cafe' de Corner,臺北市中正區羅斯福路二段36巷1號,25.028117,121.5212812
高級生吐司專門店 TREES BREAD 古亭店,台北市中正區同安街69巷2-4號,25.0235758,121.5214142
大樹下健康餐飲,臺北市中正區三元街69號,25.029495,121.509213
金磚鴨 汀州店,臺北市中正區汀州路二段262之1號,25.0212404,121.5250477
香帥蛋糕,臺北市中正區羅斯福路三段94號,25.021585,121.5268322
宗家 源 吉兆庵 微風台北車站店,臺北市中正區北平西路3號,25.0473199,121.5160463
十杯極致手作茶飲 公館店,臺北市中正區汀州路三段277號,25.0123985,121.5355393
TIGERROAR 韓虎嘯 微風北車門市,台北市中正區北平西路3號臺北車站,25.0480075,121.5170613
百佳（龍泰）創意烘培坊,臺北市中正區杭州南路一段145之2號1樓,25.036005,121.5246659
谷咕谷台灣土雞料理專門店,臺北市中正區和平西路一段28號,25.0265679,121.5206539
山嵐拉麵公館店,臺北市中正區羅斯福路四段136巷1弄13號,25.0130637,121.5353865
一手私藏世界紅茶 中正南昌店,臺北市中正區南昌路一段73號1樓,25.0309962,121.5175315
奇福扁食,臺北市中正區寧波西街17號,25.0313421,121.5184283
天仁喫茶趣 衡陽店,臺北市中正區衡陽路62號2樓,25.0421758,121.5117931
Flovie花漾薇漫,臺北市中正區羅斯福路三段244巷10弄19號,25.016115,121.531526
狗一下居食酒屋 公館店,臺北市中正區汀州路三段271號,25.012527,121.5354658
吃吐趣,臺北市中正區汀州路二段211號,25.0236187,121.5226106
魯肉飯香（金乓魯肉飯）,臺北市中正區羅斯福路三段316巷12號,25.015582,121.532409
吉豚屋 館前店,臺北市中正區信陽街27號,25.044812,121.5156503
朝日壽司,臺北市中正區羅斯福路三段100之1號,25.021269,121.527214
胡椒餅,台北市中正區羅斯福路一段25號,25.0328693,121.5184728
太學口糯米腸包香腸,臺北市中正區羅斯福路三段286巷18號,25.015861,121.53236
金陵酸梅湯之家,臺北市中正區沅陵街2號,25.0429128,121.5126224
專業飯糰、蔥蛋餅,臺北市中正區林森南路61巷10之1號,25.03974,121.522162
靜壽司,臺北市中正區羅斯福路三段316巷7之1號,25.0156779,121.532234
雪球咖啡 公館店,臺北市中正區汀州路三段227號,25.014041,121.533943
L.A.F BURGER 拉芙漢堡,臺北市中正區汀州路三段293號2F,25.0120322,121.5357408
鴉片粉圓,臺北市中正區南昌路二段156號,25.0248636,121.5233109
涓豆腐 微風北車店,臺北市中正區北平西路3號2樓,25.0477467,121.5169983
索菲烤布蕾,台北市中正區羅斯福路四段92號2樓,25.0134943,121.5349543
東門興記手工水餃,臺北市中正區金山南路一段120號,25.0350682,121.5272252
Skylark洋食‧芳鄰 寶慶遠百店,臺北市中正區寶慶路32號1樓,25.0414776,121.5089709
邱記烤鴨店,臺北市中正區重慶南路三段67號,25.0266351,121.5162986
Tegokoro 甜手心,臺北市中正區濟南路二段4之1號,25.0406824,121.5304936
何家大碗公涼麵 成功店,臺北市中正區青島東路21之9號,25.04344,121.5241354
麗園壽司,臺北市中正區連雲街74之3號,25.03428,121.5299504
老鄧Lao Deng1949,臺北市大安區信義路二段198巷4號,25.0332323,121.5301891
紅盤子港式茶餐廳,臺北市大安區安和路二段35巷3號1樓,25.0318376,121.5528962
JODO 飯糰咖啡手作專門店,臺北市中正區汀州路三段131號,25.0162735,121.5307397
銀座杏子豬排,臺北市中正區北平西路3號2樓,25.0477467,121.5169983
同安街周記炒牛肉,臺北市中正區同安街28巷2號,25.0245886,121.5218215
安東廳 (喜來登大飯店),臺北市中正區忠孝東路一段12號2樓,25.0445802,121.5224401
頂好香滷味,台北市中正區南陽街8號,25.0452276,121.5160061
泰獅 泰式料理,臺北市中正區武昌街一段16巷11號,25.0432544,121.5127563
Ebisu curry,臺北市中正區寧波西街78號,25.029929,121.5163044
スシロー壽司郎 中華路店,臺北市中正區中華路一段41號,25.0449144,121.5095061
谷得好好 GUUD TEA & COMPANY 北車信陽店,臺北市中正區信陽街12號,25.0445076,121.5159012
羅媽媽米粉湯,臺北市中正區信義路二段81號,25.0347273,121.5267743
小器食堂 華山店,台北市中正區八德路ㄧ段ㄧ號華山園區中四b館,25.0500353,121.5650865
吧生仔碌碌,臺北市中正區羅斯福路三段284巷13號1樓,25.0161696,121.5316787
可蜜達Comida 北門店,臺北市中正區中華路一段21巷14號,25.0464355,121.510492
Korea Fast 韓式料理,臺北市中正區南昌路二段207之1號1樓,25.025076,121.523427
ville cafe,臺北市中正區羅斯福路三段284巷5號,25.0162129,121.531834
話一隻雞,臺北市中正區南陽街21之5號1樓,25.0438374,121.5161413
Supreme Beans Coffee,臺北市中正區汀州路二段293號1樓,25.0219484,121.5245426
咖啡實驗室,臺北市中正區忠孝東路二段64巷6號,25.04299,121.5285899
想點 想奌,臺北市中正區開封街一段19號,25.046166,121.513746
東莒小吃店,臺北市中正區貴陽街一段東吳大學及清華幼兒園旁,25.0945636,121.5454248
香港泉記小吃館,臺北市中正區羅斯福路四段24巷12弄3號,25.0149453,121.532779
大拙匠人食品有限公司_美食推薦匠拌麵,臺北市中正區新生南路一段160巷11號1樓,25.0346775,121.5310038
塔吉特Touched 千層蛋糕 北捷店,臺北市中正區忠孝西路一段49號,25.0463846,121.5178642
上上咖啡 ShangShang Coffee,臺北市中正區延平南路95號,25.0427979,121.5107754
國家表演藝術中心,臺北市中正區中山南路21之1號,25.0368934,121.5193872
離騷 Bistro & Bar,臺北市中正區新生南路一段52之3號2樓,25.0413868,121.5325457
玖伍川味牛肉麵,臺北市中正區新生南路一段54巷22號,25.0411396,121.5316772
Mr.雪腐 公館店,臺北市中正區羅斯福路三段244巷21號,25.0166544,121.5304567
巫雲,臺北市中正區羅斯福路三段244巷9弄7號,25.017131,121.5304439
康樂意小吃店,臺北市中正區汀州路二段46號,25.0252446,121.5178495
花園 THAI THAI 台北花園大酒店,臺北市中正區中華路二段1號,25.0363705,121.5068203
龍記炒燴,台北市羅斯福路四段92號,25.0135188,121.534971
國家攝影文化中心,臺北市中正區忠孝西路一段70號,25.0468763,121.5142514
張記鍋貼牛肉麵,臺北市中正區延平南路101巷4號,25.0425053,121.5109401
東京油組総本店 台北華山組,臺北市中正區忠孝東路一段140號,25.0440575,121.5255089
Alleycat's Pizza (台北華山店),臺北市中正區八德路一段1號,25.0432788,121.5293005
新宿勝博殿日式豬排さぼてん 三創園區店,臺北市中正區市民大道三段2號B2,25.0454815,121.5311273
京畿道韓式料理,臺北市中正區延平南路216巷2號,25.0345477,121.5073064
青島東路 基隆麵食館,臺北市中正區青島東路七號之三,25.0436223,121.5230182
咖博館 台北聚落店,臺北市中正區重慶南路三段2號1樓,25.0295813,121.5151425
秀食屋Shows House 關東煮專賣店,臺北市中正區汀州路三段227號,25.014041,121.533943
65義大利麵 寧波店,臺北市中正區寧波西街88之1號,25.0298029,121.5157334
羊成小館,臺北市中正區忠孝東路二段80號,25.0431035,121.5290257
鮮魚湯,臺北市中正區濟南路二段63號,25.0403545,121.5320407
佐藤精肉店 akiba,台北市中正區八德路一段82巷9弄8號2樓,25.0435024,121.5319214
安宅AnJai 燉麵專賣,臺北市中正區牯嶺街65號,25.0290245,121.5173675
小旺號鐵板捲餅,臺北市中正區汀州路三段259號,25.0125371,121.5354398
公館清蒸肉圓,臺北市中正區汀州路三段150號,25.0136452,121.5340986
徐家麵食點心舖,臺北市大安區杭州南路二段55號,25.0325548,121.522821
蔣老爹麵食 忠孝新生店,臺北市中正區臨沂街3巷19號,25.0433164,121.5317523
大四方蛋餅,臺北市中正區南陽街3之1號,25.0439648,121.5161532
2個10元紅豆餅,臺北市中正區重慶南路一段36號,25.0449267,121.5130824
星島海南雞飯 懷寧店,臺北市中正區懷寧街35號,25.044897,121.514252
台生飲食亭,臺北市中正區開封街一段49號,25.0458029,121.514252
秀昌水餃,臺北市中正區中華路二段309巷20號,25.0289267,121.5059821
本味拉麵,臺北市中正區南昌路一段76號,25.0310139,121.517242
廣東腸粉,台北市中正區開封街一段2-32號,25.0458568,121.5144549
森高砂咖啡華山實驗室,台北市八德路一段1號,25.0432788,121.5293005
南機場土耳其沙威瑪,臺北市中正區中華路二段309巷8之1號,25.0285788,121.5057895
基隆黑輪綜合甜不辣,臺北市中正區中華路二段309巷19號,25.0289228,121.50595
TUTTO Fresco 翡冷翠義式餐廳,台北市中正區漢口街一段15號1樓,25.0452935,121.514443
德立莊酒店,臺北市中正區秀山街4號,25.0425228,121.5094326
阿吉豆漿紅茶 南機場夜市,臺北市中正區中華路二段311巷8號,25.0283346,121.5059932
Mr.拉麵 公館店,臺北市中正區羅斯福路三段316巷9弄2號,25.015618,121.532022
BATAVIA - Taste of Asia,臺北市中正區懷寧街100號1樓,25.0420555,121.5139497
叫小賀地瓜,臺北市中正區羅斯福路四段4號,25.0159129,121.532802
張家清真黃牛肉麵館,臺北市中正區延平南路21號,25.045725,121.510765
輕晨日和早午餐,臺北市中正區和平西路一段50號,25.0264266,121.5198047
回憶麵煎餅,臺北市中正區羅斯福路四段90巷2號,25.01384,121.534705
大戶屋台北凱撒店,臺北市中正區忠孝西路一段38號B1,25.0462341,121.5164145
曼谷魚 泰式國民料理,臺北市中正區青島東路5之1號,25.0439342,121.522077
悅湘蛋包飯,臺北市中正區信陽街26之11號,25.0444759,121.5154778
書屋花甲,台北市中正區中華路二段307巷42號,25.0293869,121.5063566
El Sabroso Mexican Food,臺北市中正區汀州路三段107號之一,25.0169379,121.529826
漸漸咖啡店,臺北市中正區銅山街三巷二號一樓,25.0406851,121.526354
朝鑫壽司 (朝日壽司),臺北市中正區羅斯福路三段84巷2號,25.0217791,121.5262657
重熙老麵,台北市廣州街8巷7號,25.0348954,121.5081787
台灣添虱目魚專賣店,臺北市中正區懷寧街88號,25.042868,121.513946
萊陽桃酥,臺北市中正區羅斯福路三段90號,25.0218101,121.5265848
I'M PASTA 光華店,臺北市中正區八德路一段82巷9弄7號,25.0436065,121.531568
台北國軍英雄館軍友餐廳,臺北市中正區長沙街一段20號,25.0402858,121.508698
大狗麵線 南陽店,臺北市中正區南陽街13號,25.044983,121.5163747
平安京茶事,臺北市中正區師大路165號,25.0206485,121.5273612
スシロー壽司郎 台灣旗艦店,臺北市中正區館前路8號2樓,25.0458475,121.5147831
光合箱子華山店,臺北市中正區八德路一段1號,25.0432788,121.5293005
慢慢Bistro,臺北市中正區南昌路一段60號,25.0313221,121.5170113
大廳酒吧 (喜來登大飯店),臺北市中正區忠孝東路一段12號,25.0445802,121.5224401
美蘭阿姨果汁吧,臺北市萬華區中華路二段309巷底,25.0289658,121.5061325
初聲咖啡店,臺北市中正區衡陽路84巷3號,25.0419279,121.5108315
紀州庵文學茶館,臺北市中正區同安街107號,25.0215357,121.5206629
拾年腸粉,臺北市中正區水源路27巷19號,25.0175769,121.525246
倆倆號 22KEBAB公館汀洲店,台北市中正區汀州路三段158-1號,25.0134783,121.5342352
三代肉羹滷肉飯,臺北市中正區寶慶路61號,25.0418582,121.5093863
鍋膳,臺北市中正區臨沂街27巷9之3號,25.041292,121.531416
台鐵便當本舖,臺北市中正區北平西路3號,25.0473199,121.5160463
得記港式麻辣鴨血,臺北市中正區羅斯福路四段52巷16弄4號,25.0144253,121.5336442
春城雲南小吃,台北市中正區紹興南街4-3號,25.0436421,121.5247513
茗香園冰室 公館店,台北市中正區羅斯福路四段132號2F,25.0129836,121.5357926
DB Beer Bar Taipei 璞邸體驗店-台北車站,臺北市中正區重慶南路一段7號,25.0463983,121.5134361
矢場味噌豬排,台北市中正區信義路二段171號1樓,25.034033,121.52913
森發茶行 武昌店,臺北市中正區武昌街一段31號,25.044234,121.512068
老台客食麵,臺北市中正區懷寧街42號,25.0448459,121.514052
銀記手擀刀切牛肉麵,臺北市中正區八德路一段82巷9弄15號,25.0435853,121.5313891
Bar 春花 The Primrose,臺北市中正區新生南路一段56巷8號,25.0410679,121.5322209
天神炒麵麵包,臺北市中正區南陽街17巷2號,25.0441137,121.516411
金雞母 Jingimoo・甜品,臺北市中正區杭州南路一段143巷36號,25.035544,121.52704
鱻鮮料理,臺北市中正區信義路二段81號,25.0347273,121.5267743
呷米蔬食/素食餐廳,臺北市中正區衡陽路9號,25.0424622,121.5137092
楊記大餛飩,臺北市中正區八德路一段82巷9弄8號,25.0435024,121.5319214
柳橙王子Prince of Orange,臺北市中正區濟南路二段48巷7之1號,25.039804,121.531075
強記雞肉飯,臺北市中正區重慶南路一段46巷1號,25.0445456,121.512809
江記東門豆花,臺北市中正區金山南路一段142巷5號,25.0347819,121.527097
米澤製麵(古亭店)-讚岐烏龍麵,臺北市中正區羅斯福路三段18號,25.0232022,121.5250787
李媽媽麵館,臺北市中正區博愛路160巷8號,25.0417784,121.5109004
湛盧咖啡台大館,臺北市中正區羅斯福路三段284巷2號,25.016063,121.531908
有家麵食館,臺北市中正區林森南路37之1號,25.0407657,121.5223709
Nola Kitchen 紐澳良小廚,臺北市中正區青島東路7之8號,25.0441893,121.5223436
平成日式煎餃,臺北市中正區信陽街17號,25.0447962,121.5158946
炸鷄大獅北市公館店,臺北市中正區羅斯福路三段316巷3號,25.0157225,121.5325589
阿圖麻油雞,臺北市中正區博愛路102號,25.0439073,121.5113735
蘭庭川菜館,臺北市中正區武昌街一段16巷13號,25.0432336,121.5126064
三禾米粉湯,臺北市中正區林森南路61巷3號,25.0398555,121.5223845
明星西點麵包,臺北市中正區武昌街一段7號,25.0441941,121.5127048
蕃薯藤自然食堂-台北植物園店,臺北市中正區南海路41號5樓,25.031779,121.512333
戲台酒館-Theater Trattoria,臺北市中正區中山南路21之1號,25.0368934,121.5193872
聖比德 東門店,臺北市中正區信義路二段199號,25.0339458,121.5298267
盧記魚丸店,臺北市中正區杭州南路二段55號,25.0325548,121.522821
FireWood Cafe 法爾木咖啡,臺北市中正區同安街20號,25.0250649,121.522357
滇味泰廚,臺北市中正區南昌路一段59巷23號,25.031467,121.518007
赤雞雞排,臺北市中正區中山北路一段42號,25.0470347,121.5199678
南機場花枝魷魚羹,臺北市中正區中華路二段309巷19之1號,25.0289228,121.50595
謝阿姨美食坊,臺北市中正區博愛路122號B1樓,25.043361,121.511395
Psalms Cafe詩篇咖啡餐廳,臺北市中正區中山南路20號B1,25.0375913,121.516737
Checkers 台北凱撒大飯店,臺北市中正區忠孝西路一段38號2樓,25.0462341,121.5164145
恩記牛肉麵,臺北市中正區忠孝東路一段108號2樓,25.043898,121.524815
一碗來,臺北市中正區八德路一段1號,25.0432788,121.5293005
狠台 台式炒飯炒麵,臺北市中正區羅斯福路四段92號水源市場15號攤,25.01371,121.534983
公園號酸梅湯,臺北市中正區衡陽路2號,25.04224,121.513941
花月嵐,臺北市中正區忠孝西路一段38號,25.0460991,121.5162582
暢唱咖啡 CHANT CHANT CAFE,臺北市中正區晉江街115號,25.0231555,121.5244412
曼谷燒,臺北市中正區羅斯福路三段286巷18號,25.015861,121.53236
青鳥旅行 台北誠品站前B1店,台北市中正區忠孝西路一段47號B1,25.0465183,121.5174415
羊毛與花 ‧ 東門 youmoutoohana Coffee,臺北市中正區信義路一段9之1號,25.0366686,121.5223564
Jolly手工釀啤酒泰食餐廳 衡陽店,臺北市中正區衡陽路60號,25.0421609,121.511897
母女の店泰式簡餐,臺北市中正區羅斯福路三段286巷4弄10號,25.01589,121.531974
愛樂廚房,臺北市中正區羅斯福路三段282號2樓,25.0164986,121.5321045
光華82巷豬血糕,臺北市中正區八德路一段82巷1號,25.0437869,121.5318143
老樹咖啡,臺北市中正區新生南路一段60號,25.040714,121.5325287
上鼎軒,台北市中正區八德路一段43巷28號,25.0447254,121.5315147
Tamping coffee,臺北市中正區重慶南路二段19巷2號,25.0324332,121.5144719
大心新泰式麵食,台北市北平西路3號2樓,25.0477467,121.5169983
福州世祖胡椒餅,臺北市中正區重慶南路一段13號,25.0461274,121.5134327
鈺師傅上海生煎包,臺北市中正區中華路二段307巷20號,25.0290439,121.5058841
金華47,臺北市中正區金華街47號,25.0319459,121.5202463
Town by Bryan Nagao Taipei,臺北市中正區信義路二段171號3樓,25.034033,121.52913
以雪爾,臺北市中正區南海路2巷14號,25.031917,121.5180091
朕點麻小面,臺北市中正區汀州路三段77號,25.0179176,121.5287151
汪派沙茶羊肉 南機場分店,台北市中正區中華路二段311巷18-1號,25.0285775,121.5062369
黛黛茶 DailyDae公館秀泰店-歐風水果茶,臺北市中正區羅斯福路四段136巷3號,25.0127831,121.5352608
Ooh Cha Cha 自然食,臺北市中正區南昌路二段207之1號,25.025076,121.523427
潮味決‧湯滷專門店 台北公館分社,臺北市中正區羅斯福路三段284巷8號1樓北側,25.0159869,121.5318321
逸香麵線,臺北市中正區寧波西街59號,25.030699,121.517367
李記正客家魷魚羹,臺北市中正區汀州路三段289號,25.012112,121.5356806
Kokorolia 心物語 Maid Café,臺北市中正區延平南路80號,25.0446855,121.510119
梅村日本料理,臺北市中正區衡陽路74號,25.042177,121.5112271
咖啡俱樂部 COFFEE CLUB,臺北市中正區忠孝西路一段122號,25.0473878,121.5109371
大家美食愛玉檸檬冰品 Sun Like Sweets Dessert Shop,臺北市中正區武昌街一段23號,25.0442012,121.5122632
TrueWin初韻 台北公館店,臺北市中正區汀州路三段275號,25.0124459,121.5355099
十三川日本拉麵定食,臺北市中正區懷寧街39號,25.044798,121.5142375
上島珈琲店 誠品站前店,臺北市中正區忠孝西路一段49號,25.0463846,121.5178642
碳探和牛專門店,臺北市中正區金山南路一段31號,25.0399486,121.5291839
山姆客咖啡,臺北市中正區延平南路90號,25.0444326,121.5101315
Melody Heart旋律之心女僕咖啡廳,臺北市中正區重慶南路一段5巷1號,25.0466954,121.5135773
冰斗喫甜,臺北市中正區詔安街38巷2弄5號,25.0242462,121.5145617
有煎餃子館-忠杭門市,臺北市中正區杭州南路一段10之1號,25.0429139,121.526406
京町8號,臺北市中正區博愛路8號,25.0467299,121.5111623
Läbu Café,臺北市中正區信義路二段161巷2弄7號,25.034462,121.528312
哈亞極品咖啡 HAAYA'S COFFEE 三創店,臺北市中正區市民大道三段2號4樓,25.0454858,121.53114
捷絲旅西門咖啡廳,臺北市中正區中華路一段41號5樓,25.0450456,121.5095859
台灣博物館_石尚恐龍主題餐廳,臺北市中正區襄陽路25號,25.0436693,121.5144292
bb.q CHICKEN 南昌聯合店,台北市中正區南昌路一段139號,25.0296015,121.5185898
伍玲年代,臺北市中正區杭州南路一段5號,25.0435496,121.5268638
東門鴨莊,臺北市中正區金山南路一段134號,25.0347251,121.5272154
JellyJelly 慢工烘焙,台北市中正區臨沂街31-1號,25.0399749,121.5299172
甲林鐵板燒JEA LIN,臺北市中正區中華路二段309巷27號,25.0292424,121.5062003
阿樹小吃,臺北市中正區衡陽路84巷7號,25.0417748,121.5109968
川輝小吃,臺北市中正區牯嶺街75號,25.0282561,121.5179014
龍口米苔目米粉湯,臺北市中正區汀州路一段224號,25.0275678,121.5098329
府城便當,臺北市中正區汀州路一段292號,25.0267078,121.5115532
爺兒咖哩,臺北市中正區汀州路二段146號,25.0243555,121.521118
就是愛煎餅果子.咔滋飯糰 台北車站旗艦店,臺北市中正區開封街一段2之50號,25.0459201,121.514362
Hungry Pans 夯堡 寧波店,臺北市中正區寧波西街24號1樓,25.0310734,121.5183285
威宇牛排-公館店,臺北市中正區汀州路三段257號,25.0129791,121.5351811
欣杭小吃店,臺北市中正區同安街51號,25.024377,121.5220467
平價燒烤,臺北市中正區同安街83之1號,25.0230348,121.5210809
郭記牛肉麵,臺北市中正區汀州路二段152號,25.0241658,121.5213816
怡客咖啡 忠杭店,臺北市中正區杭州南路一段8之2號,25.0358187,121.5247069
徐州路2號庭園會館,臺北市中正區徐州路2號,25.0408601,121.5206807
Malaysia Kitchen in Taiwan 大馬廚房,臺北市大安區復興南路二段200號,25.0267664,121.5432235
金泰刀削麵,台北市中正區南昌路1段51巷5號,25.029461,121.5186832
洪記鹹粥,臺北市中正區中華路二段311巷,25.0287032,121.5062855
ㄧ志雞排,臺北市中正區濟南路一段13巷,25.0427639,121.522231
有煎餃子館(北市寧波館),臺北市中正區寧波西街7號,25.0294382,121.5141267
祥園小吃店,台北市中正區寧波西街4之1號,25.03137,121.5187969
天晴1982 手作茶飲,臺北市中正區寶慶路67號,25.0419078,121.5092134
金門風味館 台北店,臺北市松山區饒河街142號,25.0503221,121.5754048
晴光紅豆餅 公館店,臺北市大安區汀州路三段255號,25.0129949,121.5351373
珍香鍋貼,臺北市中正區廣州街6號,25.0351764,121.5091203
UNI CAFE,臺北市中正區金門街15號,25.0216993,121.523399
JJ's POKE & CAFE 鮮魚沙拉飯,台北市中正區汀州路三段160巷4號,25.013297,121.5340601
壹等涼果汁攤,臺北市中正區中華路二段309巷26號,25.0291351,121.506267
胖媽大塊牛肉麵,臺北市中正區中華路二段307巷5號,25.0289849,121.5054115
NALA's Mexican Food,臺北市中正區羅斯福路一段7之1號,25.0334845,121.5180145
元味古早小吃,臺北市中正區延平南路179巷1弄1號,25.0342456,121.5077218
虎記商行,臺北市中正區寧波東街1之1號,25.0318808,121.5193721
Gusto Pizza,臺北市中正區連雲街74號,25.03428,121.5299504
四兩 刈包-台北創始總店,臺北市中正區寧波西街63巷,25.0307354,121.5171762
秋月日式炸豬排,臺北市中正區惠安街15之2號,25.0296829,121.5066485
西螺祖傳麻糬 程文照工坊,臺北市中正區羅斯福路一段12號,25.0319525,121.5185824
すき家sukiya,臺北市中正區羅斯福路二段50號,25.0278068,121.5215876
丼壽司,臺北市中正區汀州路三段165號一樓,25.0152949,121.532295
天和烘焙坊,臺北市中正區北平東路30號,25.0456746,121.52586
樂寶食堂 lambocucina,臺北市中正區延平南路3之2號1樓,25.0465068,121.5109698
曉食堂-日式料理 中正南昌,台北市中正區南昌路一段59巷5號,25.031293,121.517713
天才領袖感覺統合情緒教育中心,臺北市中正區羅斯福路二段56號,25.027762,121.5216211
南山鐵板燒,臺北市中正區牯嶺街1號,25.0320093,121.5151443
Très Bon Café 好伴 CAFÉ,台北市博愛路224巷5號,25.0340017,121.5099968
CAFE!N 硬咖啡 衡陽店,臺北市中正區衡陽路35號,25.0424211,121.5126148
翠薪越南餐廳,臺北市中正區羅斯福路四段24巷11號,25.0151712,121.5326126
umai我賣車輪餅,臺北市中正區羅斯福路四段136巷3號,25.0127831,121.5352608
點點心 微風車站,臺北市中正區北平西路3號臺北車站2F,25.0480075,121.5170613
EBISU KITCHEN,臺北市中正區寧波西街77號,25.0304795,121.516815
三槐堂,臺北市中正區羅斯福路一段72巷2號,25.0305955,121.5193432
阿順排骨,臺北市中正區漢口街一段80巷12號,25.0445813,121.5121042
喫尤平價鐵板燒 - 公館店,臺北市中正區汀州路三段247號,25.0138045,121.5342625
7號咖啡館,臺北市中正區鎮江街7號,25.0435693,121.5212947
聚聚,臺北市中正區重慶南路二段92號,25.0300052,121.5150063
田舍手打麵(南門店),臺北市中正區中華路二段75巷21號,25.0337611,121.5071268
正宗老店福州麵,臺北市中正區中華路二段315巷89號,25.0282821,121.5066088
梅老闆 飯麵食堂,臺北市中正區羅斯福路一段58巷28號,25.030407,121.5184751
canteenM Bar,台北市中正區中華路一段3號2F,25.0471477,121.5105138
陸軍聯誼廳(孫立人將軍官邸 ),臺北市中正區南昌路一段136號,25.0290149,121.5184463
スシロー壽司郎 台北公館店,臺北市中正區羅斯福路四段68號2樓,25.0145683,121.5342721
光點珈琲時光 華山店,臺北市中正區八德路一段1號,25.0432788,121.5293005
閒酥雞總店,臺北市中正區南昌路一段108巷1號,25.0301389,121.5174888
涮乃葉 寶慶遠百店,臺北市中正區寶慶路32號6樓,25.04167,121.509168
順興冰果室,臺北市中正區牯嶺街5巷1號,25.0317418,121.5153781
以利泡泡冰,臺北市大安區羅斯福路三段316巷8弄內,25.0157507,121.5324719
咖啡弄 (站前店),臺北市中正區館前路18號,25.045466,121.5148084
七十二牛肉麵,臺北市中正區濟南路二段71號,25.0403684,121.5324404
呷飯團,臺北市中正區羅斯福路四段78巷2弄2號,25.013933,121.534498
味覺の感動,臺北市中正區忠孝東路二段30號,25.0434729,121.5277903
翠庭 (天成大飯店),臺北市中正區忠孝西路一段43號,25.0463736,121.5183769
未來市 The Gala Asia,臺北市中正區八德路一段一號,25.0438521,121.5307491
葉嘉美食小館 (東北斤餅),臺北市中正區汀州路二段207號,25.0236889,121.5225278
TASTy 西堤牛排 台北重慶南店,臺北市中正區重慶南路一段129號2F,25.041988,121.513329
藍門咖啡,臺北市中正區汀州路二段150號一樓,25.0241908,121.5213356
美妙山咖啡 My Cafe,臺北市中正區齊東街78號,25.0417164,121.5275451
樂法 Le Phare - 正德店,臺北市中正區八德路一段82巷7號,25.0436556,121.5318257
The Deli,臺北市中正區忠孝東路一段12號,25.0445802,121.5224401
黃豆家,臺北市中正區中華路二段301巷2號,25.0294549,121.5048038
好雞匯鹹水雞-公館旗艦店,台北市羅斯福路四段70-1號,25.0143515,121.5343986
寧波排骨大王,臺北市中正區寧波東街14號,25.0324883,121.5201634
賢記牛肉(丸)河粉 海鮮麵疙瘩,臺北市中正區南昌路一段59巷15號,25.031377,121.517853
正宗台南意麵,臺北市中正區鎮江街7之1號,25.0435693,121.5212947
捌玖玖滷肉飯,臺北市中正區南昌路一段59巷43號,25.0317239,121.5184349
小松鍋燒麵,臺北市中正區南昌路一段59巷18號,25.031678,121.518112
百八魚場,臺北市中正區忠孝東路一段152號,25.0439638,121.5258925
華王排骨,臺北市中正區重慶南路三段83號,25.0254469,121.5166779
Dear Leslie café,臺北市中正區民生東路二段93巷2號,25.0582813,121.5309597
高三孝碳烤吐司,臺北市中正區南昌路一段31巷11之4號,25.032229,121.5174645
噽香鐵板燒便當,臺北市中正區八德路一段82巷9弄9號1樓,25.0436087,121.531497
阿姨米粉湯,臺北市中正區中華路二段455號,25.0249053,121.5097653
小確幸紅茶牛奶合作社,臺北市中正區八德路一段1號,25.0432788,121.5293005
ALCICCHETTO義麵坊小酒館,臺北市中正區八德路一段40號,25.043611,121.5307112
煎台兄弟,臺北市中正區寧波西街88號,25.0298029,121.5157334
吉恩日輕食。咖啡,臺北市中正區杭州南路一段109號,25.0372908,121.5250406
阿輝現炒黃牛肉,臺北市中正區中華路二段303巷16號,25.0295374,121.5053608
萬里香肉包饅頭專賣店,臺北市中正區武昌街一段61號,25.0442378,121.5105524
古早味煎餃,臺北市中正區羅斯福路四段108巷4之2號,25.013182,121.5352561
油豆腐細粉,臺北市中正區公園路28之2號,25.044785,121.516934
南機場沙威瑪,臺北市中正區中華路二段313巷和315巷之間,25.0285195,121.5065437
艾搗蛋手工蛋餅,臺北市中正區紹興南街4之2號,25.0433429,121.5247006
南門豬腳,臺北市中正區福州街5號,25.0297368,121.52
劑院 Dose cuisine & malt,臺北市中正區愛國東路18號,25.0343444,121.5175966
大福利排骨大王,臺北市中正區羅斯福路三段286巷12號,25.0159912,121.5323101
三鱻食府,臺北市中正區紹興南街15號,25.0389997,121.523664
趙記菜肉餛飩大王,臺北市中正區桃源街5號,25.041906,121.510589
劉家魷魚羹,臺北市中正區汀州路一段277號,25.0264063,121.513629
土貓商號 Turkish Kedi,臺北市中正區汀州路三段104巷6號,25.0140379,121.5331838
吉野烤肉飯 南陽店,臺北市中正區公園路20巷8號,25.0451879,121.5166945
日本清華軒,臺北市中正區羅斯福路四段92號之20攤位,25.0135188,121.534971
樂亭麵,臺北市中正區林森南路61巷13號,25.0397402,121.522754
華山町餐酒館,臺北市中正區八德路一段34號,25.0435951,121.5303287
禾甲蒸豆腐食堂「原-呷臭彈現蒸臭豆腐」,臺北市中正區中華路二段311巷15號,25.0286737,121.5060377
初韻-好韻茶TrueWin 台北站前店,臺北市中正區信陽街11之2號,25.0447769,121.5165099
十二巷拉麵,臺北市中正區羅斯福路四段12巷1號,25.0157653,121.5330065
狂愛咖哩 Just Love Curry,臺北市中正區汀州路三段164號,25.0133798,121.534466
人性空間 總店,臺北市中正區羅斯福路三段286巷4弄1之1號,25.0159256,121.532056
小食糖sugar bistro /環浪商號,臺北市中正區信義路二段181巷3號,25.0342531,121.5295291
北海漁村,臺北市中正區杭州南路一段8號,25.0432025,121.5264851
三米三小館,臺北市中正區羅斯福路三段286巷4弄12號,25.0158905,121.5319308
怡客咖啡 站前店,臺北市中正區忠孝西路一段39號,25.0461867,121.5185898
1789 Café,臺北市中正區仁愛路二段97之1號,25.0384347,121.5321686
樺達奶茶,台北市中正區忠孝西路一段47號,25.0469357,121.5154329
瑪德蓮書店咖啡,臺北市中正區汀州路三段192號B1,25.0127395,121.5347821
前鎮水產-海霸王 德立莊店,臺北市中正區延平南路110號B1,25.042344,121.5094814
海壽司,臺北市中正區承德路一段156號B3,25.053161,121.5173599
煇煌川菜小館,臺北市中正區延平南路166號,25.0373945,121.5080404
天然臺湘菜館,臺北市中正區羅斯福路一段61號,25.0316586,121.5193834
蕭家傳統小吃,臺北市中正區羅斯福路四段90巷6號,25.0136049,121.534468
The Misanthrope Society 厭世會社,臺北市中正區羅斯福路四段40巷1之2號,25.0150419,121.5334076
深夜裡的法國手工甜點,臺北市大安區金山南路二段141巷1號,25.0296678,121.5268296
阿剛泰式主題餐廳,臺北市中正區汀州路三段150號,25.0136452,121.5340986
皇膳餐廳,臺北市中正區仁愛路二段48號,25.0380127,121.5285957
中山堂堡壘廳,臺北市中正區延平南路98號,25.0425041,121.5103541
The Platypus Café鴨嘴獸咖啡,臺北市杭州南路一段101號,25.0376797,121.5252692
Chic Thai 泰式新定食,臺北市中正區汀州路三段166號2樓,25.013327,121.534537
立川黃金鍋-衡陽店,臺北市中正區衡陽路90號1樓,25.042133,121.510791
The Shrine,臺北市中正區師大路132號,25.0209335,121.5271419
富田鐵板燒,臺北市中正區紹興南街15號,25.0389997,121.523664
開丼 燒肉vs丼飯 HOYII北車站店,台北市中正區忠孝西路一段36號,25.0460243,121.5169483
東家食堂,臺北市中正區西藏路8號,25.0306673,121.5077355
佳典魯肉飯,臺北市中正區牯嶺街117號,25.0251171,121.5191781
Alice Is Coming 來自愛麗絲,臺北市中正區延平南路111號2樓,25.041816,121.509581
麗江雲南美食小館,臺北市中正區汀州路三段83號,25.0176507,121.5288006
Doly朵莉,臺北市中正區廈門街23之2號,25.0265266,121.5180089
加里曼丹印尼美食,臺北市中正區金門街1號,25.0230124,121.5247969
打狗霸 TAKAO 1972 德立莊店,臺北市中正區延平南路110號,25.042344,121.5094814
四海包子店,臺北市中正區寧波西街87號,25.0299774,121.5156462
日式桃子燒,臺北市中正區八德路一段82號,25.0440299,121.5319945
郎哥台南意麵,臺北市中正區濟南路二段53之8號,25.0404674,121.5312025
Co Co 都可(南昌門市),臺北市中正區南昌路一段77號,25.030664,121.517782
原味咖哩屋,臺北市中正區牯嶺街16號,25.0307379,121.5158518
客坐 Ke zuo,臺北市中正區連雲街74巷8號,25.0344164,121.5294898
會宴樓 台北花園大酒店,臺北市中正區中華路二段1號,25.0363705,121.5068203
廣東羊城小食,臺北市中正區重慶南路一段46巷2號,25.04445,121.512825
心KOKORO食堂,臺北市中正區汀州路三段104巷11弄15號一樓,25.0134632,121.5337966
醉紅小酌,臺北市中正區羅斯福路三段240巷1號,25.0181633,121.5303086
小美好牛肉麵,臺北市中正區杭州南路一段143巷39號,25.035619,121.5272604
泰國小館,臺北市中正區汀州路三段219號,25.014113,121.533806
Campus Cafe -站前旗艦店,台北市中正區館前路36號2樓,25.0444899,121.5148784
上官木桶鍋 中正店,臺北市中正區南昌路一段97號,25.0303372,121.5180524
日常經典TAGather Goods | 日常野草Daily Green 總部,臺北市中正區漢口街一段110號4號樓之16,25.04502,121.51099
彦亭 日式料理,臺北市中正區寧波西街92號,25.029729,121.5155252
黑白切,台北市中正區臨沂街6巷1號,25.0425575,121.530477
乳菓在一起 中正紀念堂,臺北市中正區寧波東街11之4號,25.0329709,121.5201967
國都甜不辣,臺北市中正區南昌路二段161號,25.025739,121.522665
富富の正,臺北市中正區金山南路一段110巷4弄2號,25.0350522,121.5271012
無老鍋 西門町店,臺北市中正區中華路一段55號2樓,25.0427074,121.5089386
大福燒,臺北市中正區臨沂街3巷13號,25.0433369,121.5315796
楊家麵食館,臺北市中正區寧波東街15號,25.0330688,121.5202574
丸壽司,臺北市中正區北平西路3號2F,25.0473199,121.5160463
Happy fatty幸福肥,臺北市中正區汀州路三段91號1樓,25.017517,121.52894
石石香拌,台北市北平西路3號2樓,25.0477467,121.5169983
金華香港燒臘快餐店,臺北市中正區齊東街70巷1號,25.0420096,121.5278859
原凱養生精緻便當,台北市八德路一段82巷9弄19號,25.0435216,121.5311795
雅方福州魚丸店 (前義芳),臺北市中正區臨沂街75號,25.0350033,121.5280628
老張牛肉麵,臺北市中正區杭州南路二段48號,25.0307928,121.5221364
曾師傅鍋貼水餃專賣店,臺北市中正區同安街12之1號,25.021842,121.520476
餃匠,臺北市大安區通化街20號,25.0319573,121.5541652
鳳珍寶滷味風,臺北市中正區寧波西街26號,25.0310737,121.5183156
阿才的店,臺北市中山區八德路二段323號,25.047504,121.54303
享滋鐵板燒,台北市中正區汀州路二段113號,25.0253386,121.5188373
咖啡學人-傑克威爾 The Cafeist & Jackwell,臺北市中正區羅斯福路二段118號,25.0264297,121.5226946
彼得好咖啡 古亭店,臺北市中正區羅斯福路二段132號,25.0260626,121.5228903
精食巧 海苔飯捲,臺北市中正區南陽街3號,25.0452988,121.5162058
沛洛瑟珈琲店,臺北市中正區中華路二段75巷40號,25.0334342,121.5076858
黃媽媽家常麵,臺北市中正區林森南路61巷7號1樓,25.0397827,121.5224845
下酒菜串燒居酒屋,臺北市中正區金山南路一段81之1號,25.0369574,121.5280955
佳興魚丸,臺北市中正區汀州路三段243號,25.013865,121.53418
水源福利會館,臺北市中正區思源街16號2樓,25.0137039,121.5283471
飯饌韓式料理,臺北市中正區忠孝西路一段36號B1,25.0460142,121.516942
豪季水餃專賣店 牯嶺店,臺北市中正區牯嶺街36號,25.0298718,121.516465
小日子商號,台北市羅斯福路四段52巷16弄13號,25.0143994,121.5338453
建弘雞肉飯,臺北市中正區寧波西街61號,25.0306719,121.51732
好味港式快餐,臺北市中正區懷寧街17號之3,25.045626,121.5143097
喬園手工大水餃,臺北市中正區中華路二段387號,25.0262731,121.5079028
滿福堂,臺北市中正區忠孝東路二段3號,25.0441368,121.5272051
家食堂,臺北市中正區南昌路一段96號二樓,25.0305087,121.5176042
街角柒號,臺北市中正區中華路二段305巷7號,25.0292743,121.505251
中原麵店,臺北市中正區青島東路23之11號,25.0433945,121.5243221
牯嶺油飯,臺北市中正區牯嶺街45號,25.0299567,121.5166324
添財日本料理武昌店,臺北市中正區武昌街一段16巷6號,25.04356,121.512551